NORAD_CAT_ID,OBJECT_NAME,OBJECT_TYPE,EPOCH,MEAN_MOTION,ECCENTRICITY,INCLINATION,RA_OF_ASC_NODE,ARG_OF_PERICENTER,MEAN_ANOMALY,BSTAR,MEAN_MOTION_DOT,MEAN_MOTION_DDOT,TLE_LINE0,TLE_LINE1,TLE_LINE2,SEMIMAJOR_AXIS,PERIOD,APOGEE,PERIGEE,DECAYED
52578.0,STARLINK-3833,PAYLOAD,2022-09-03 14:00:01,15.08820332,0.0002432,53.2183,134.2116,68.715,216.5967,0.0032259,0.0005139999999999,0.0,0 STARLINK-3833,1 52578U 22051AU  22246.58334491  .00051400  00000-0  32259-2 0  9993,2 52578  53.2183 134.2116 0002432  68.7150 216.5967 15.08820332  1309,6917.941,95.439,541.488,538.123,0.0
52578.0,STARLINK-3833,PAYLOAD,2022-09-03 22:00:00,15.08858321,0.0002516,53.2183,132.7168,66.3532,230.5525,-0.00085904,-0.00013942,0.0,0 STARLINK-3833,1 52578U 22051AU  22246.91667824 -.00013942  00000-0 -85904-3 0  9996,2 52578  53.2183 132.7168 0002516  66.3532 230.5525 15.08858321  1305,6917.824000000001,95.436,541.43,537.9490000000002,0.0
52578.0,STARLINK-3833,PAYLOAD,2022-09-04 14:00:01,15.08824762,0.0002316,53.2181,129.7226,69.892,250.3164,0.0028117,0.00044727,0.0,0 STARLINK-3833,1 52578U 22051AU  22247.58335648  .00044727  00000-0  28117-2 0  9991,2 52578  53.2181 129.7226 0002316  69.8920 250.3164 15.08824762  1302,6917.927,95.439,541.394,538.19,0.0
52578.0,STARLINK-3833,PAYLOAD,2022-09-04 20:00:01,15.08874096,0.0002340999999999,53.2183,128.6017,67.8936,170.9488,-0.0035628,-0.000566,0.0,0 STARLINK-3833,1 52578U 22051AU  22247.83334491 -.00056600  00000-0 -35628-2 0  9994,2 52578  53.2183 128.6017 0002341  67.8936 170.9488 15.08874096  1304,6917.776,95.435,541.261,538.0219999999998,0.0
52578.0,STARLINK-3833,PAYLOAD,2022-09-05 06:00:00,15.08859828,0.0002294,53.2181,126.7315,63.2331,280.1161,-0.0010925,-0.00017643,0.0,0 STARLINK-3833,1 52578U 22051AU  22248.25001157 -.00017643  00000-0 -10925-2 0  9998,2 52578  53.2181 126.7315 0002294  63.2331 280.1161 15.08859828 17998,6917.82,95.436,541.2719999999998,538.0980000000002,0.0
52578.0,STARLINK-3833,PAYLOAD,2022-09-05 14:00:01,15.08827935,0.0002159,53.2183,125.2338,69.2052,285.7633,0.001401,0.00022072,0.0,0 STARLINK-3833,1 52578U 22051AU  22248.58334491  .00022072  00000-0  14010-2 0  9993,2 52578  53.2183 125.2338 0002159  69.2052 285.7633 15.08827935  1302,6917.917,95.438,541.276,538.289,0.0
52578.0,STARLINK-3833,PAYLOAD,2022-09-05 22:00:00,15.08832623,0.0002206,53.2184,123.7393,63.8638,302.6931,-0.0020965,-0.00033494,0.0,0 STARLINK-3833,1 52578U 22051AU  22248.91667824 -.00033494  00000-0 -20965-2 0  9997,2 52578  53.2184 123.7393 0002206  63.8638 302.6931 15.08832623  1300,6917.903,95.438,541.294,538.242,0.0
52578.0,STARLINK-3833,PAYLOAD,2022-09-06 12:00:00,15.08774824,0.0001989,53.2187,121.1193,65.3932,231.4165,0.0034071999999999,0.00054259,0.0,0 STARLINK-3833,1 52578U 22051AU  22249.50001157  .00054259  00000-0  34072-2 0  9998,2 52578  53.2187 121.1193 0001989  65.3932 231.4165 15.08774824 18184,6918.08,95.442,541.321,538.569,0.0
52578.0,STARLINK-3833,PAYLOAD,2022-09-06 14:00:01,15.087827,0.0002015,53.2187,120.7451,66.7637,322.9282,0.0032251999999999,0.00051335,0.0,0 STARLINK-3833,1 52578U 22051AU  22249.58334491  .00051335  00000-0  32252-2 0  9996,2 52578  53.2187 120.7451 0002015  66.7637 322.9282 15.08782700  1308,6918.056,95.441,541.315,538.5269999999998,0.0
52578.0,STARLINK-3833,PAYLOAD,2022-09-06 22:00:00,15.08813059,0.0002173,53.2188,119.2507,62.3137,338.9229,-0.00056606,-9.279e-05,0.0,0 STARLINK-3833,1 52578U 22051AU  22249.91667824 -.00009279  00000-0 -56606-3 0  9994,2 52578  53.2188 119.2507 0002173  62.3137 338.9229 15.08813059  1306,6917.9630000000025,95.439,541.331,538.3240000000002,0.0
52578.0,STARLINK-3833,PAYLOAD,2022-09-07 04:00:00,15.08812058,0.0002144,53.2188,118.1287,59.8319,260.0725,0.0010075,0.00015771,0.0,0 STARLINK-3833,1 52578U 22051AU  22250.16667824  .00015771  00000-0  10075-2 0  9994,2 52578  53.2188 118.1287 0002144  59.8319 260.0725 15.08812058 18289,6917.965999999999,95.439,541.314,538.3480000000002,0.0
52578.0,STARLINK-3833,PAYLOAD,2022-09-07 14:00:01,15.08810966,0.0002098,53.2192,116.2566,67.5023,356.8691,0.0027281999999999,0.00043365,0.0,0 STARLINK-3833,1 52578U 22051AU  22250.58334491  .00043365  00000-0  27282-2 0  9999,2 52578  53.2192 116.2566 0002098  67.5023 356.8691 15.08810966  1306,6917.969,95.439,541.286,538.383,0.0
52578.0,STARLINK-3833,PAYLOAD,2022-09-07 22:00:00,15.08837207,0.0002233,53.2192,114.7621,63.0354,12.9154,-0.00032502,-5.457e-05,0.0,0 STARLINK-3833,1 52578U 22051AU  22250.91667824 -.00005457  00000-0 -32502-3 0  9999,2 52578  53.2192 114.7621 0002233  63.0354  12.9154 15.08837207  1301,6917.889,95.438,541.299,538.2090000000002,0.0
52578.0,STARLINK-3833,PAYLOAD,2022-09-08 06:00:00,15.08858414,0.0002174999999999,53.2192,113.2653,62.7441,24.7918,-0.0013578,-0.00021844,0.0,0 STARLINK-3833,1 52578U 22051AU  22251.25001157 -.00021844  00000-0 -13578-2 0  9997,2 52578  53.2192 113.2653 0002175  62.7441  24.7918 15.08858414 18443,6917.824000000001,95.436,541.194,538.184,0.0
52578.0,STARLINK-3833,PAYLOAD,2022-09-08 14:00:01,15.08839272,0.0002125,53.2195,111.7677,69.0152,30.1273,0.0022605,0.00035871,0.0,0 STARLINK-3833,1 52578U 22051AU  22251.58334491  .00035871  00000-0  22605-2 0  9997,2 52578  53.2195 111.7677 0002125  69.0152  30.1273 15.08839272  1302,6917.8830000000025,95.438,541.2180000000002,538.278,0.0
52578.0,STARLINK-3833,PAYLOAD,2022-09-08 22:00:00,15.08871211,0.0002198,53.2194,110.2732,63.5349,47.219,-0.0026742,-0.00042634,0.0,0 STARLINK-3833,1 52578U 22051AU  22251.91667824 -.00042634  00000-0 -26742-2 0  9996,2 52578  53.2194 110.2732 0002198  63.5349  47.2190 15.08871211  1300,6917.785,95.436,541.1709999999998,538.129,0.0
52578.0,STARLINK-3833,PAYLOAD,2022-09-09 14:00:01,15.08846095,0.0001989,53.2194,107.2787,69.5701,64.4002,0.0016829,0.00026602,0.0,0 STARLINK-3833,1 52578U 22051AU  22252.58334491  .00026602  00000-0  16829-2 0  9991,2 52578  53.2194 107.2787 0001989  69.5701  64.4002 15.08846095  1306,6917.861999999999,95.437,541.1030000000002,538.351,0.0
52578.0,STARLINK-3833,PAYLOAD,2022-09-09 22:00:00,15.08853291,0.0002026,53.2191,105.7841,63.0943,82.4935,-0.0017617999999999,-0.00028229,0.0,0 STARLINK-3833,1 52578U 22051AU  22252.91667824 -.00028229  00000-0 -17618-2 0  9993,2 52578  53.2191 105.7841 0002026  63.0943  82.4935 15.08853291  1308,6917.84,95.437,541.106,538.303,0.0
52578.0,STARLINK-3833,PAYLOAD,2022-09-10 06:00:02,15.08850993,0.0001906,53.2187,104.2868,63.9868,93.2498,-0.0015696,-0.00025189,0.0,0 STARLINK-3833,1 52578U 22051AU  22253.25002315 -.00025189  00000-0 -15696-2 0  9995,2 52578  53.2187 104.2868 0001906  63.9868  93.2498 15.08850993 18743,6917.847,95.437,541.03,538.393,0.0
52578.0,STARLINK-3833,PAYLOAD,2022-09-10 14:00:01,15.08851817,0.0001837,53.2189,102.7897,70.2244,98.5411,-0.001309,-0.00021067,0.0,0 STARLINK-3833,1 52578U 22051AU  22253.58334491 -.00021067  00000-0 -13090-2 0  9991,2 52578  53.2189 102.7897 0001837  70.2244  98.5411 15.08851817  1305,6917.844,95.437,540.98,538.438,0.0
52578.0,STARLINK-3833,PAYLOAD,2022-09-10 22:00:00,15.08814709,0.0001883,53.2186,101.295,62.2889,118.0786,0.0008451999999999,0.0001318,0.0,0 STARLINK-3833,1 52578U 22051AU  22253.91667824  .00013180  00000-0  84520-3 0  9999,2 52578  53.2186 101.2950 0001883  62.2889 118.0786 15.08814709  1305,6917.958000000001,95.439,541.125,538.52,0.0
52578.0,STARLINK-3833,PAYLOAD,2022-09-11 06:00:00,15.08844989,0.0001802,53.2182,99.7975,64.5679,127.3687,-0.0015327,-0.00024602,0.0,0 STARLINK-3833,1 52578U 22051AU  22254.25001157 -.00024602  00000-0 -15327-2 0  9999,2 52578  53.2182  99.7975 0001802  64.5679 127.3687 15.08844989 18902,6917.865,95.437,540.977,538.484,0.0
52578.0,STARLINK-3833,PAYLOAD,2022-09-11 14:00:01,15.08838297,0.000179,53.2183,98.3006,70.8367,132.6853,0.0010218,0.00016011,0.0,0 STARLINK-3833,1 52578U 22051AU  22254.58334491  .00016011  00000-0  10218-2 0  9992,2 52578  53.2183  98.3006 0001790  70.8367 132.6853 15.08838297  1308,6917.886,95.438,540.989,538.512,0.0
52578.0,STARLINK-3833,PAYLOAD,2022-09-11 22:00:00,15.08833389,0.0001883,53.2181,96.8059,63.0342,152.0911,0.0014148,0.00022296,0.0,0 STARLINK-3833,1 52578U 22051AU  22254.91667824  .00022296  00000-0  14148-2 0  9996,2 52578  53.2181  96.8059 0001883  63.0342 152.0911 15.08833389  1305,6917.901,95.438,541.068,538.4630000000002,0.0
52578.0,STARLINK-3833,PAYLOAD,2022-09-12 12:00:00,15.08838346,0.0001710999999999,53.2174,94.1778,67.7495,77.678,-0.0033271999999999,-0.0005285,0.0,0 STARLINK-3833,1 52578U 22051AU  22255.50001157 -.00052850  00000-0 -33272-2 0  9993,2 52578  53.2174  94.1778 0001711  67.7495  77.6780 15.08838346 19084,6917.885,95.438,540.934,538.567,0.0
52578.0,STARLINK-3833,PAYLOAD,2022-09-12 14:00:01,15.088347099999998,0.0001703,53.218,93.8114,69.5205,168.7893,0.00084576,0.00013196,0.0,0 STARLINK-3833,1 52578U 22051AU  22255.58334491  .00013196  00000-0  84576-3 0  9993,2 52578  53.2180  93.8114 0001703  69.5205 168.7893 15.08834710  1305,6917.897,95.438,540.94,538.5830000000002,0.0
52578.0,STARLINK-3833,PAYLOAD,2022-09-12 22:00:00,15.08824893,0.0001813,53.218,92.3166,60.9284,188.9796,0.0021330999999999,0.0003381,0.0,0 STARLINK-3833,1 52578U 22051AU  22255.91667824  .00033810  00000-0  21331-2 0  9993,2 52578  53.2180  92.3166 0001813  60.9284 188.9796 15.08824893 19159,6917.927,95.439,541.0459999999998,538.5369999999998,0.0
52578.0,STARLINK-3833,PAYLOAD,2022-09-13 14:00:01,15.08830513,0.0001612,53.2182,89.3221,66.6809,206.413,0.00055752,8.594e-05,0.0,0 STARLINK-3833,1 52578U 22051AU  22256.58334491  .00008594  00000-0  55752-3 0  9994,2 52578  53.2182  89.3221 0001612  66.6809 206.4130 15.08830513  1304,6917.909000000002,95.438,540.89,538.659,0.0
52578.0,STARLINK-3833,PAYLOAD,2022-09-13 16:00:00,15.0884316,0.0001626999999999,53.2182,88.9466,64.3459,301.6421,-0.0011229,-0.00018116,0.0,0 STARLINK-3833,1 52578U 22051AU  22256.66667824 -.00018116  00000-0 -11229-2 0  9995,2 52578  53.2182  88.9466 0001627  64.3459 301.6421 15.08843160 19269,6917.871,95.437,540.861,538.61,0.0
